$$SOE
2461302.500000000, A.D. 2026-Sep-19 00:00:00.0000, 1.991366446285134E+08, -2.041978514641688E+08, -2.437638452617884E+07,
2461309.500000000, A.D. 2026-Sep-26 00:00:00.0000, 2.069896864895728E+08, -1.955274741090666E+08, -2.938274583899563E+07,
2461316.500000000, A.D. 2026-Oct-03 00:00:00.0000, 2.144143976738006E+08, -1.864524979977869E+08, -3.432830134745065E+07,
2461323.500000000, A.D. 2026-Oct-10 00:00:00.0000, 2.213952293348964E+08, -1.769915470803742E+08, -3.920278688171684E+07,
2461330.500000000, A.D. 2026-Oct-17 00:00:00.0000, 2.279174117122055E+08, -1.671639580902511E+08, -4.399605441191193E+07,
2461337.500000000, A.D. 2026-Oct-24 00:00:00.0000, 2.339669747440626E+08, -1.569897586768375E+08, -4.869808498698637E+07,
2461344.500000000, A.D. 2026-Oct-31 00:00:00.0000, 2.395307689165981E+08, -1.464896454445393E+08, -5.329900182092993E+07,
2461351.500000000, A.D. 2026-Nov-07 00:00:00.0000, 2.445964867175616E+08, -1.356849617119125E+08, -5.778908358670441E+07,
2461358.500000000, A.D. 2026-Nov-14 00:00:00.0000, 2.491526849329713E+08, -1.245976739897774E+08, -6.215877789889906E+07,
2461365.500000000, A.D. 2026-Nov-21 00:00:00.0000, 2.531888060050935E+08, -1.132503463915485E+08, -6.639871480007554E+07,
2461372.500000000, A.D. 2026-Nov-28 00:00:00.0000, 2.566951974594752E+08, -1.016661158726587E+08, -7.049972043754873E+07,
2461379.500000000, A.D. 2026-Dec-05 00:00:00.0000, 2.596631330101635E+08, -8.986866882837406E+07, -7.445283134203237E+07,
2461386.500000000, A.D. 2026-Dec-12 00:00:00.0000, 2.620848354940166E+08, -7.788221580734484E+07, -7.824930909264708E+07,
2461393.500000000, A.D. 2026-Dec-19 00:00:00.0000, 2.639534997243943E+08, -6.573146420372248E+07, -8.188065521676013E+07,
2461400.500000000, A.D. 2026-Dec-26 00:00:00.0000, 2.652633150847737E+08, -5.344158966285840E+07, -8.533862640085745E+07,
2461407.500000000, A.D. 2027-Jan-02 00:00:00.0000, 2.660094880860227E+08, -4.103820625517964E+07, -8.861525006702197E+07,
2461414.500000000, A.D. 2027-Jan-09 00:00:00.0000, 2.661882649375538E+08, -2.854733525938167E+07, -9.170284033295472E+07,
2461421.500000000, A.D. 2027-Jan-16 00:00:00.0000, 2.657969540864039E+08, -1.599537240624030E+07, -9.459401436209379E+07,
2461428.500000000, A.D. 2027-Jan-23 00:00:00.0000, 2.648339486743609E+08, -3.409053483653400E+06, -9.728170911066209E+07,
2461435.500000000, A.D. 2027-Jan-30 00:00:00.0000, 2.632987489876147E+08, 9.184581783597268E+06, -9.975919848589094E+07,
2461442.500000000, A.D. 2027-Feb-06 00:00:00.0000, 2.611919851856046E+08, 2.175822805023906E+07, -1.020201109072031E+08,
2461449.500000000, A.D. 2027-Feb-13 00:00:00.0000, 2.585154396935687E+08, 3.428435622150807E+07, -1.040584470992354E+08,
2461456.500000000, A.D. 2027-Feb-20 00:00:00.0000, 2.552720667422728E+08, 4.673525822128835E+07, -1.058685979414825E+08,
2461463.500000000, A.D. 2027-Feb-27 00:00:00.0000, 2.514660102777039E+08, 5.908309155196095E+07, -1.074453627343881E+08,
2461470.500000000, A.D. 2027-Mar-06 00:00:00.0000, 2.471026230505282E+08, 7.129992567029800E+07, -1.087839679487792E+08,
2461477.500000000, A.D. 2027-Mar-13 00:00:00.0000, 2.421884850626122E+08, 8.335779232740238E+07, -1.098800860832225E+08,
2461484.500000000, A.D. 2027-Mar-20 00:00:00.0000, 2.367314200073411E+08, 9.522873912123530E+07, -1.107298545271465E+08,
2461491.500000000, A.D. 2027-Mar-27 00:00:00.0000, 2.307405096547948E+08, 1.068848857772079E+08, -1.113298944161882E+08,
2461498.500000000, A.D. 2027-Apr-03 00:00:00.0000, 2.242261061162205E+08, 1.182984831535975E+08, -1.116773294138461E+08,
2461505.500000000, A.D. 2027-Apr-10 00:00:00.0000, 2.171998417644923E+08, 1.294419750171409E+08, -1.117698043232032E+08,
2461512.500000000, A.D. 2027-Apr-17 00:00:00.0000, 2.096746365336175E+08, 1.402880625719946E+08, -1.116055034205033E+08,
2461519.500000000, A.D. 2027-Apr-24 00:00:00.0000, 2.016647023651982E+08, 1.508097716502671E+08, -1.111831684007758E+08,
2461526.500000000, A.D. 2027-May-01 00:00:00.0000, 1.931855447819681E+08, 1.609805225317881E+08, -1.105021158295644E+08,
2461533.500000000, A.D. 2027-May-08 00:00:00.0000, 1.842539615703733E+08, 1.707742030408255E+08, -1.095622539245950E+08,
2461540.500000000, A.D. 2027-May-15 00:00:00.0000, 1.748880367336552E+08, 1.801652457300809E+08, -1.083640982855722E+08,
2461547.500000000, A.D. 2027-May-22 00:00:00.0000, 1.651071278045144E+08, 1.891287063994452E+08, -1.069087864712828E+08,
2461554.500000000, A.D. 2027-May-29 00:00:00.0000, 1.549318495519874E+08, 1.976403422783313E+08, -1.051980916940649E+08,
2461561.500000000, A.D. 2027-Jun-05 00:00:00.0000, 1.443840546479953E+08, 2.056766927360488E+08, -1.032344352766590E+08,
2461568.500000000, A.D. 2027-Jun-12 00:00:00.0000, 1.334868089695816E+08, 2.132151626439492E+08, -1.010208974597671E+08,
2461575.500000000, A.D. 2027-Jun-19 00:00:00.0000, 1.222643609135127E+08, 2.202341071022161E+08, -9.856122641357508E+07,
2461582.500000000, A.D. 2027-Jun-26 00:00:00.0000, 1.107421047382135E+08, 2.267129168645053E+08, -9.585984530004372E+07,
2461589.500000000, A.D. 2027-Jul-03 00:00:00.0000, 9.894653782643776E+07, 2.326321040092238E+08, -9.292185718581842E+07,
2461596.500000000, A.D. 2027-Jul-10 00:00:00.0000, 8.690521169003274E+07, 2.379733873589858E+08, -8.975304759129661E+07,
2461603.500000000, A.D. 2027-Jul-17 00:00:00.0000, 7.464667656673732E+07, 2.427197770647265E+08, -8.635988447615442E+07,
2461610.500000000, A.D. 2027-Jul-24 00:00:00.0000, 6.220041962694053E+07, 2.468556577152933E+08, -8.274951550021286E+07,
2461617.500000000, A.D. 2027-Jul-31 00:00:00.0000, 4.959679713104896E+07, 2.503668695988071E+08, -7.892976242299411E+07,
2461624.500000000, A.D. 2027-Aug-07 00:00:00.0000, 3.686696034475605E+07, 2.532407886236577E+08, -7.490911239076062E+07,
2461631.500000000, A.D. 2027-Aug-14 00:00:00.0000, 2.404277299799121E+07, 2.554664039533746E+08, -7.069670578212568E+07,
2461638.500000000, A.D. 2027-Aug-21 00:00:00.0000, 1.115672103815905E+07, 2.570343892597960E+08, -6.630232080395569E+07,
2461645.500000000, A.D. 2027-Aug-28 00:00:00.0000, -1.758181695019764E+06, 2.579371680870292E+08, -6.173635495871754E+07,
2461652.500000000, A.D. 2027-Sep-04 00:00:00.0000, -1.466849275499965E+07, 2.581689751109415E+08, -5.700980300681783E+07,
2461659.500000000, A.D. 2027-Sep-11 00:00:00.0000, -2.754044635764366E+07, 2.577259119023685E+08, -5.213423130477317E+07,
2461666.500000000, A.D. 2027-Sep-18 00:00:00.0000, -4.034006405460443E+07, 2.566059958347284E+08, -4.712174857702384E+07,
2461673.500000000, A.D. 2027-Sep-25 00:00:00.0000, -5.303327005241522E+07, 2.548092013811457E+08, -4.198497318164100E+07,
2461680.500000000, A.D. 2027-Oct-02 00:00:00.0000, -6.558601049188963E+07, 2.523374931911944E+08, -3.673699694701099E+07,
2461687.500000000, A.D. 2027-Oct-09 00:00:00.0000, -7.796437597897834E+07, 2.491948503560802E+08, -3.139134569457915E+07,
2461694.500000000, A.D. 2027-Oct-16 00:00:00.0000, -9.013472654729396E+07, 2.453872812828155E+08, -2.596193661140415E+07,
2461701.500000000, A.D. 2027-Oct-23 00:00:00.0000, -1.020638179731076E+08, 2.409228287199244E+08, -2.046303269110839E+07,
2461708.500000000, A.D. 2027-Oct-30 00:00:00.0000, -1.137189281969430E+08, 2.358115651768439E+08, -1.490919446240869E+07,
2461715.500000000, A.D. 2027-Nov-06 00:00:00.0000, -1.250679841061641E+08, 2.300655795975377E+08, -9.315229081524700E+06,
2461722.500000000, A.D. 2027-Nov-13 00:00:00.0000, -1.360796897141231E+08, 2.236989530563920E+08, -3.696137087858275E+06,
2461729.500000000, A.D. 2027-Nov-20 00:00:00.0000, -1.467236518457478E+08, 2.167277212116213E+08, 1.932942395027995E+06,
2461736.500000000, A.D. 2027-Nov-27 00:00:00.0000, -1.569705007522403E+08, 2.091698265067975E+08, 7.556787737146571E+06,
2461743.500000000, A.D. 2027-Dec-04 00:00:00.0000, -1.667920067336016E+08, 2.010450612199469E+08, 1.316015201712704E+07,
2461750.500000000, A.D. 2027-Dec-11 00:00:00.0000, -1.761611923734203E+08, 1.923750006856633E+08, 1.872782093097152E+07,
2461757.500000000, A.D. 2027-Dec-18 00:00:00.0000, -1.850524392064985E+08, 1.831829267390701E+08, 2.424467091441789E+07,
2461764.500000000, A.D. 2027-Dec-25 00:00:00.0000, -1.934415878207827E+08, 1.734937418796188E+08, 2.969572702915701E+07,
2461771.500000000, A.D. 2028-Jan-01 00:00:00.0000, -2.013060305720507E+08, 1.633338747753589E+08, 3.506622017359565E+07,
$$EOE